OBJECT_NAME,OBJECT_ID,EPOCH,MEAN_MOTION,ECCENTRICITY,INCLINATION,RA_OF_ASC_NODE,ARG_OF_PERICENTER,MEAN_ANOMALY,EPHEMERIS_TYPE,CLASSIFICATION_TYPE,NORAD_CAT_ID,ELEMENT_SET_NO,REV_AT_EPOCH,BSTAR,MEAN_MOTION_DOT,MEAN_MOTION_DDOT
ONEWEB-0340,2021-083W,2026-06-11T12:26:52.617120,13.18685749,.0002004,87.9167,336.5832,91.1843,268.9518,0,U,49206,999,22922,.25126E-3,.112E-5,0
ONEWEB-0341,2021-083X,2026-06-11T12:36:35.524224,13.18686029,.0002158,87.9160,336.5854,103.6884,256.4488,0,U,49207,999,22924,.1612E-3,.76E-6,0
ONEWEB-0342,2021-083Y,2026-06-11T14:14:25.839168,13.20771175,.000188,87.9194,275.5516,102.5823,257.5520,0,U,49208,999,23604,.13364E-3,.67E-6,0
ONEWEB-0343,2021-083Z,2026-06-11T12:48:44.303040,13.18686211,.0001537,87.9164,336.5824,101.8796,258.2508,0,U,49209,999,22929,.67004E-4,.39E-6,0
ONEWEB-0344,2021-083AA,2026-06-11T11:35:05.445024,13.13472516,.0002068,87.8938,321.3774,104.1275,256.0084,0,U,49210,999,23014,-.18922E-3,-.56E-6,0
ONEWEB-0345,2021-083AB,2026-06-11T16:51:59.092992,13.13471213,.0002008,87.8956,321.3135,103.6240,256.5113,0,U,49211,999,23018,-.61372E-3,-.211E-5,0
ONEWEB-0346,2021-083AC,2026-06-11T12:43:52.590720,13.18685519,.0002418,87.9158,336.5836,82.9930,277.1477,0,U,49212,999,22923,.96029E-4,.51E-6,0
ONEWEB-0348,2021-083AD,2026-06-11T08:32:36.748032,13.20770483,.0002489,87.9192,275.6026,99.8934,260.2480,0,U,49213,999,23604,.1634E-3,.79E-6,0
ONEWEB-0350,2021-083AE,2026-06-11T11:43:35.797728,13.12944157,.0002055,87.8954,321.3599,100.4484,259.6876,0,U,49214,999,23018,.23479E-3,.98E-6,0
ONEWEB-0351,2021-083AF,2026-06-11T13:49:58.376640,13.20770158,.0001799,87.9194,275.5575,127.0013,233.1285,0,U,49215,999,23603,.18906E-3,.9E-6,0
ONEWEB-0352,2021-083AG,2026-06-11T16:37:22.149408,13.13470427,.0001547,87.8949,321.3268,106.1874,253.9425,0,U,49216,999,23030,-.62285E-3,-.215E-5,0
ONEWEB-0354,2021-083AH,2026-06-11T14:28:59.001888,13.20772748,.0002367,87.9191,275.5509,102.6016,257.5382,0,U,49217,999,23607,.49519E-4,.33E-6,0
ONEWEB-0355,2021-083AJ,2026-06-11T11:49:55.672608,13.13470547,.0001808,87.8943,321.3683,102.8997,257.2334,0,U,49218,999,23015,.55876E-3,.217E-5,0
ONEWEB-0357,2021-083AK,2026-06-11T16:13:13.448640,13.20771722,.0001847,87.9191,275.5307,106.5436,253.5900,0,U,49219,999,23608,-.42528E-3,-.16E-5,0
ONEWEB-0332,2021-090A,2026-06-11T14:03:42.515136,13.14501416,.0001665,87.8962,290.8255,98.7130,261.4188,0,U,49279,999,22684,.50885E-3,.201E-5,0
ONEWEB-0347,2021-090B,2026-06-11T14:09:35.027136,13.20770985,.0001731,87.9191,275.5560,97.6583,262.4747,0,U,49280,999,23030,.11675E-3,.6E-6,0
ONEWEB-0349,2021-090C,2026-06-11T13:06:33.752736,13.20772394,.0001986,87.9191,275.5653,101.4189,258.7167,0,U,49281,999,22908,.1076E-3,.57E-6,0
ONEWEB-0353,2021-090D,2026-06-11T15:41:55.428000,13.14502744,.0001627,87.8963,290.8075,97.1471,262.9844,0,U,49282,999,22685,.56392E-3,.222E-5,0
ONEWEB-0356,2021-090E,2026-06-11T16:42:18.802080,13.20773226,.0002232,87.9190,275.5287,79.3944,280.7441,0,U,49283,999,22910,-.14244E-3,-.45E-6,0
ONEWEB-0358,2021-090F,2026-06-11T08:20:51.368064,13.20270488,.0002507,87.9193,275.6026,92.0705,268.0715,0,U,49284,999,22978,-.16044E-1,-.6458E-4,0
ONEWEB-0359,2021-090G,2026-06-11T13:42:55.231776,13.20772888,.0002268,87.9190,275.5535,101.4562,258.6826,0,U,49285,999,22979,.25203E-3,.115E-5,0
ONEWEB-0360,2021-090H,2026-06-11T08:01:06.737664,13.20770856,.0002059,87.9190,275.6071,103.1309,257.0054,0,U,49286,999,22907,.15056E-2,.625E-5,0
ONEWEB-0361,2021-090J,2026-06-11T16:39:52.651296,13.20770884,.0002086,87.9192,275.5335,99.0848,261.0521,0,U,49287,999,22957,-.20605E-3,-.71E-6,0
ONEWEB-0362,2021-090K,2026-06-11T15:25:20.225280,13.19724406,.0001828,87.9166,306.0828,106.4774,253.6560,0,U,49288,999,22618,.17549E-3,.83E-6,0
ONEWEB-0363,2021-090L,2026-06-11T13:23:30.571008,13.20770600,.0002116,87.9192,275.5611,92.0600,268.0776,0,U,49289,999,22956,.22589E-3,.105E-5,0
ONEWEB-0364,2021-090M,2026-06-11T14:19:16.608000,13.20771080,.0001963,87.9190,275.5613,101.0380,259.0974,0,U,49290,999,23070,-.13741E-3,-.43E-6,0
ONEWEB-0365,2021-090N,2026-06-11T15:38:59.525376,13.19724749,.0001781,87.9172,306.0689,99.5302,260.6033,0,U,49291,999,22569,.18766E-3,.88E-6,0
ONEWEB-0366,2021-090P,2026-06-11T15:37:21.139104,13.14502478,.0001934,87.8959,290.8101,100.2698,259.8650,0,U,49292,999,22683,.57657E-3,.227E-5,0
ONEWEB-0367,2021-090Q,2026-06-11T13:22:19.107840,13.20778274,.0001901,87.9194,275.5620,104.0201,256.1143,0,U,49293,999,22908,-.30942E-2,-.1245E-4,0
ONEWEB-0368,2021-090R,2026-06-11T16:22:53.800032,13.20769371,.0001552,87.9181,275.5483,80.6692,279.4617,0,U,49294,999,23025,-.30238E-3,-.11E-5,0
