ONEWEB-0340             
1 49206U 21083W   26162.51866455  .00000112  00000+0  25126-3 0  9994
2 49206  87.9167 336.5832 0002004  91.1843 268.9518 13.18685749229221
ONEWEB-0341             
1 49207U 21083X   26162.52541116  .00000076  00000+0  16120-3 0  9993
2 49207  87.9160 336.5854 0002158 103.6884 256.4488 13.18686029229245
ONEWEB-0342             
1 49208U 21083Y   26162.59335462  .00000067  00000+0  13364-3 0  9993
2 49208  87.9194 275.5516 0001880 102.5823 257.5520 13.20771175236047
ONEWEB-0343             
1 49209U 21083Z   26162.53384610  .00000039  00000+0  67004-4 0  9997
2 49209  87.9164 336.5824 0001537 101.8796 258.2508 13.18686211229291
ONEWEB-0344             
1 49210U 21083AA  26162.48270191 -.00000056  00000+0 -18922-3 0  9996
2 49210  87.8938 321.3774 0002068 104.1275 256.0084 13.13472516230142
ONEWEB-0345             
1 49211U 21083AB  26162.70276728 -.00000211  00000+0 -61372-3 0  9994
2 49211  87.8956 321.3135 0002008 103.6240 256.5113 13.13471213230189
ONEWEB-0346             
1 49212U 21083AC  26162.53046980  .00000051  00000+0  96029-4 0  9999
2 49212  87.9158 336.5836 0002418  82.9930 277.1477 13.18685519229238
ONEWEB-0348             
1 49213U 21083AD  26162.35598088  .00000079  00000+0  16340-3 0  9998
2 49213  87.9192 275.6026 0002489  99.8934 260.2480 13.20770483236042
ONEWEB-0350             
1 49214U 21083AE  26162.48860877  .00000098  00000+0  23479-3 0  9993
2 49214  87.8954 321.3599 0002055 100.4484 259.6876 13.12944157230182
ONEWEB-0351             
1 49215U 21083AF  26162.57637010  .00000090  00000+0  18906-3 0  9996
2 49215  87.9194 275.5575 0001799 127.0013 233.1285 13.20770158236039
ONEWEB-0352             
1 49216U 21083AG  26162.69261747 -.00000215  00000+0 -62285-3 0  9990
2 49216  87.8949 321.3268 0001547 106.1874 253.9425 13.13470427230308
ONEWEB-0354             
1 49217U 21083AH  26162.60346067  .00000033  00000+0  49519-4 0  9993
2 49217  87.9191 275.5509 0002367 102.6016 257.5382 13.20772748236078
ONEWEB-0355             
1 49218U 21083AJ  26162.49300547  .00000217  00000+0  55876-3 0  9990
2 49218  87.8943 321.3683 0001808 102.8997 257.2334 13.13470547230156
ONEWEB-0357             
1 49219U 21083AK  26162.67585010 -.00000160  00000+0 -42528-3 0  9990
2 49219  87.9191 275.5307 0001847 106.5436 253.5900 13.20771722236081
ONEWEB-0332             
1 49279U 21090A   26162.58590874  .00000201  00000+0  50885-3 0  9997
2 49279  87.8962 290.8255 0001665  98.7130 261.4188 13.14501416226848
ONEWEB-0347             
1 49280U 21090B   26162.58998874  .00000060  00000+0  11675-3 0  9998
2 49280  87.9191 275.5560 0001731  97.6583 262.4747 13.20770985230302
ONEWEB-0349             
1 49281U 21090C   26162.54622399  .00000057  00000+0  10760-3 0  9991
2 49281  87.9191 275.5653 0001986 101.4189 258.7167 13.20772394229087
ONEWEB-0353             
1 49282U 21090D   26162.65411375  .00000222  00000+0  56392-3 0  9999
2 49282  87.8963 290.8075 0001627  97.1471 262.9844 13.14502744226853
ONEWEB-0356             
1 49283U 21090E   26162.69605095 -.00000045  00000+0 -14244-3 0  9993
2 49283  87.9190 275.5287 0002232  79.3944 280.7441 13.20773226229106
ONEWEB-0358             
1 49284U 21090F   26162.34781676 -.00006458  00000+0 -16044-1 0  9998
2 49284  87.9193 275.6026 0002507  92.0705 268.0715 13.20270488229783
ONEWEB-0359             
1 49285U 21090G   26162.57147259  .00000115  00000+0  25203-3 0  9998
2 49285  87.9190 275.5535 0002268 101.4562 258.6826 13.20772888229795
ONEWEB-0360             
1 49286U 21090H   26162.33410576  .00000625  00000+0  15056-2 0  9998
2 49286  87.9190 275.6071 0002059 103.1309 257.0054 13.20770856229078
ONEWEB-0361             
1 49287U 21090J   26162.69435939 -.00000071  00000+0 -20605-3 0  9992
2 49287  87.9192 275.5335 0002086  99.0848 261.0521 13.20770884229574
ONEWEB-0362             
1 49288U 21090K   26162.64259520  .00000083  00000+0  17549-3 0  9992
2 49288  87.9166 306.0828 0001828 106.4774 253.6560 13.19724406226188
ONEWEB-0363             
1 49289U 21090L   26162.55799272  .00000105  00000+0  22589-3 0  9991
2 49289  87.9192 275.5611 0002116  92.0600 268.0776 13.20770600229560
ONEWEB-0364             
1 49290U 21090M   26162.59672000 -.00000043  00000+0 -13741-3 0  9999
2 49290  87.9190 275.5613 0001963 101.0380 259.0974 13.20771080230708
ONEWEB-0365             
1 49291U 21090N   26162.65207784  .00000088  00000+0  18766-3 0  9999
2 49291  87.9172 306.0689 0001781  99.5302 260.6033 13.19724749225699
ONEWEB-0366             
1 49292U 21090P   26162.65093911  .00000227  00000+0  57657-3 0  9992
2 49292  87.8959 290.8101 0001934 100.2698 259.8650 13.14502478226839
ONEWEB-0367             
1 49293U 21090Q   26162.55716560 -.00001245  00000+0 -30942-2 0  9994
2 49293  87.9194 275.5620 0001901 104.0201 256.1143 13.20778274229087
ONEWEB-0368             
1 49294U 21090R   26162.68256713 -.00000110  00000+0 -30238-3 0  9997
2 49294  87.9181 275.5483 0001552  80.6692 279.4617 13.20769371230259
